ORBCOMM FM103 [+]       
1 40091U 14040F   23252.51268949  .00000830  00000+0  22518-3 0  9992
2 40091  47.0059 185.8788 0001917 218.3917 141.6831 14.55864849486865
ORBCOMM FM114 [+]       
1 41179U 15081A   23253.23491916  .00000902  00000+0  24115-3 0  9993
2 41179  47.0027  91.8522 0001986 257.3747 102.6916 14.55886937410321
ORBCOMM FM119 [-]       
1 41180U 15081B   23252.72106692  .00000812  00000+0  22104-3 0  9998
2 41180  47.0028   3.4625 0001809 302.1953  57.8756 14.55861641411452
ORBCOMM FM105 [-]       
1 41181U 15081C   23253.01789775  .00000322  00000+0  13909-3 0  9990
2 41181  47.0022 307.0261 0002606 291.6326  68.4276 14.43998392407437
ORBCOMM FM110 [+]       
1 41182U 15081D   23252.25098967  .00000828  00000+0  22452-3 0  9996
2 41182  47.0015  95.9109 0001524  95.4283 264.6776 14.55875527410003
ORBCOMM FM118 [+]       
1 41183U 15081E   23252.57163680  .00000929  00000+0  24735-3 0  9995
2 41183  47.0035  94.6615 0001714  91.2035 268.9046 14.55884339410158
ORBCOMM FM112 [+]       
1 41184U 15081F   23253.04235927  .00001136  00000+0  29414-3 0  9993
2 41184  47.0010   1.2152 0001948 286.2806  73.7864 14.55863797411496
ORBCOMM FM113 [+]       
1 41185U 15081G   23252.60704729  .00001045  00000+0  27342-3 0  9993
2 41185  47.0030   3.4810 0001502 289.8121  70.2601 14.55875988411361
